{
  "type": "FeatureCollection",
  "features": [
    {
      "type": "Feature",
      "properties": {
        "norad_id": 66365,
        "name": "STARLINK-35827",
        "group": "last-30-days",
        "lat": -53.08630261520764,
        "lon": -129.16763980894208,
        "alt_km": 394.0734808783591,
        "timestamp": "2025-12-04T05:42:42.156764+00:00",
        "meta_object_name": "STARLINK-35827",
        "meta_object_id": "2025-254T",
        "meta_epoch": "2025-12-03T22:00:03.000096",
        "meta_mean_motion": 15.61196559,
        "meta_eccentricity": 0.00013328,
        "meta_inclination": 53.1594,
        "meta_ra_of_asc_node": 318.8305,
        "meta_arg_of_pericenter": 103.1354,
        "meta_mean_anomaly": 163.0756,
        "meta_ephemeris_type": 0,
        "meta_classification_type": "U",
        "meta_norad_cat_id": 66365,
        "meta_element_set_no": 999,
        "meta_rev_at_epoch": 547,
        "meta_bstar": -0.026555381,
        "meta_mean_motion_dot": -0.02009429,
        "meta_mean_motion_ddot": 0,
        "tle_line1": "1 66365U 25254T   25337.91670139 -.02009429  00000+0 -26555-1 0  9991",
        "tle_line2": "2 66365  53.1594 318.8305 0001332 103.1354 163.0756 15.61196559  5471"
      },
      "geometry": {
        "type": "Point",
        "coordinates": [
          -129.16763980894208,
          -53.08630261520764
        ]
      }
    },
    {
      "type": "Feature",
      "properties": {
        "norad_id": 66366,
        "name": "STARLINK-35845",
        "group": "last-30-days",
        "lat": -53.13889013642071,
        "lon": -132.3580779482285,
        "alt_km": 393.9190557916254,
        "timestamp": "2025-12-04T05:42:42.156775+00:00",
        "meta_object_name": "STARLINK-35845",
        "meta_object_id": "2025-254U",
        "meta_epoch": "2025-12-03T22:00:03.000096",
        "meta_mean_motion": 15.61195328,
        "meta_eccentricity": 0.00011026,
        "meta_inclination": 53.1593,
        "meta_ra_of_asc_node": 318.8336,
        "meta_arg_of_pericenter": 95.2538,
        "meta_mean_anomaly": 169.0365,
        "meta_ephemeris_type": 0,
        "meta_classification_type": "U",
        "meta_norad_cat_id": 66366,
        "meta_element_set_no": 999,
        "meta_rev_at_epoch": 550,
        "meta_bstar": -0.026474965,
        "meta_mean_motion_dot": -0.02003846,
        "meta_mean_motion_ddot": 0,
        "tle_line1": "1 66366U 25254U   25337.91670139 -.02003846  00000+0 -26475-1 0  9990",
        "tle_line2": "2 66366  53.1593 318.8336 0001102  95.2538 169.0365 15.61195328  5504"
      },
      "geometry": {
        "type": "Point",
        "coordinates": [
          -132.3580779482285,
          -53.13889013642071
        ]
      }
    },
    {
      "type": "Feature",
      "properties": {
        "norad_id": 66367,
        "name": "STARLINK-35846",
        "group": "last-30-days",
        "lat": -52.94910013817716,
        "lon": -126.00511738927811,
        "alt_km": 394.0301724325509,
        "timestamp": "2025-12-04T05:42:42.156787+00:00",
        "meta_object_name": "STARLINK-35846",
        "meta_object_id": "2025-254V",
        "meta_epoch": "2025-12-03T22:00:03.000096",
        "meta_mean_motion": 15.61198953,
        "meta_eccentricity": 0.00012764,
        "meta_inclination": 53.1594,
        "meta_ra_of_asc_node": 318.825,
        "meta_arg_of_pericenter": 102.8665,
        "meta_mean_anomaly": 165.2567,
        "meta_ephemeris_type": 0,
        "meta_classification_type": "U",
        "meta_norad_cat_id": 66367,
        "meta_element_set_no": 999,
        "meta_rev_at_epoch": 545,
        "meta_bstar": -0.026553666,
        "meta_mean_motion_dot": -0.02009438,
        "meta_mean_motion_ddot": 0,
        "tle_line1": "1 66367U 25254V   25337.91670139 -.02009438  00000+0 -26554-1 0  9992",
        "tle_line2": "2 66367  53.1594 318.8250 0001276 102.8665 165.2567 15.61198953  5452"
      },
      "geometry": {
        "type": "Point",
        "coordinates": [
          -126.00511738927811,
          -52.94910013817716
        ]
      }
    },
    {
      "type": "Feature",
      "properties": {
        "norad_id": 66368,
        "name": "STARLINK-34861",
        "group": "last-30-days",
        "lat": 2.773845007879211,
        "lon": -40.83824825390931,
        "alt_km": 344.9562875946067,
        "timestamp": "2025-12-04T05:42:42.156798+00:00",
        "meta_object_name": "STARLINK-34861",
        "meta_object_id": "2025-254W",
        "meta_epoch": "2025-12-03T15:59:11.888448",
        "meta_mean_motion": 15.74306107,
        "meta_eccentricity": 0.00033801,
        "meta_inclination": 53.1568,
        "meta_ra_of_asc_node": 319.9202,
        "meta_arg_of_pericenter": 68.1148,
        "meta_mean_anomaly": 292.0231,
        "meta_ephemeris_type": 0,
        "meta_classification_type": "U",
        "meta_norad_cat_id": 66368,
        "meta_element_set_no": 999,
        "meta_rev_at_epoch": 425,
        "meta_bstar": 0.0026422499,
        "meta_mean_motion_dot": 0.0040772,
        "meta_mean_motion_ddot": 0,
        "tle_line1": "1 66368U 25254W   25337.66610982  .00407720  00000+0  26422-2 0  9992",
        "tle_line2": "2 66368  53.1568 319.9202 0003380  68.1148 292.0231 15.74306107  4251"
      },
      "geometry": {
        "type": "Point",
        "coordinates": [
          -40.83824825390931,
          2.773845007879211
        ]
      }
    },
    {
      "type": "Feature",
      "properties": {
        "norad_id": 66369,
        "name": "STARLINK-35795",
        "group": "last-30-days",
        "lat": 0.9030332010937384,
        "lon": -42.23853071496163,
        "alt_km": 347.0545587110164,
        "timestamp": "2025-12-04T05:42:42.156808+00:00",
        "meta_object_name": "STARLINK-35795",
        "meta_object_id": "2025-254X",
        "meta_epoch": "2025-12-03T15:59:40.351200",
        "meta_mean_motion": 15.74228673,
        "meta_eccentricity": 0.00015873,
        "meta_inclination": 53.1571,
        "meta_ra_of_asc_node": 319.9221,
        "meta_arg_of_pericenter": 81.4352,
        "meta_mean_anomaly": 278.6848,
        "meta_ephemeris_type": 0,
        "meta_classification_type": "U",
        "meta_norad_cat_id": 66369,
        "meta_element_set_no": 999,
        "meta_rev_at_epoch": 425,
        "meta_bstar": 0.00087751456,
        "meta_mean_motion_dot": 0.00130112,
        "meta_mean_motion_ddot": 0,
        "tle_line1": "1 66369U 25254X   25337.66643925  .00130112  00000+0  87751-3 0  9997",
        "tle_line2": "2 66369  53.1571 319.9221 0001587  81.4352 278.6848 15.74228673  4254"
      },
      "geometry": {
        "type": "Point",
        "coordinates": [
          -42.23853071496163,
          0.9030332010937384
        ]
      }
    },
    {
      "type": "Feature",
      "properties": {
        "norad_id": 66370,
        "name": "STARLINK-35824",
        "group": "last-30-days",
        "lat": 4.207135690967541,
        "lon": -39.76144053818732,
        "alt_km": 346.7304255860281,
        "timestamp": "2025-12-04T05:42:42.156820+00:00",
        "meta_object_name": "STARLINK-35824",
        "meta_object_id": "2025-254Y",
        "meta_epoch": "2025-12-03T12:55:50.777760",
        "meta_mean_motion": 15.74262739,
        "meta_eccentricity": 0.00010212,
        "meta_inclination": 53.1573,
        "meta_ra_of_asc_node": 320.5488,
        "meta_arg_of_pericenter": 124.2766,
        "meta_mean_anomaly": 235.8351,
        "meta_ephemeris_type": 0,
        "meta_classification_type": "U",
        "meta_norad_cat_id": 66370,
        "meta_element_set_no": 999,
        "meta_rev_at_epoch": 423,
        "meta_bstar": 0.0012149836,
        "meta_mean_motion_dot": 0.00181777,
        "meta_mean_motion_ddot": 0,
        "tle_line1": "1 66370U 25254Y   25337.53878215  .00181777  00000+0  12150-2 0  9990",
        "tle_line2": "2 66370  53.1573 320.5488 0001021 124.2766 235.8351 15.74262739  4232"
      },
      "geometry": {
        "type": "Point",
        "coordinates": [
          -39.76144053818732,
          4.207135690967541
        ]
      }
    },
    {
      "type": "Feature",
      "properties": {
        "norad_id": 66371,
        "name": "STARLINK-35804",
        "group": "last-30-days",
        "lat": 7.2992726373062995,
        "lon": -37.42082211229031,
        "alt_km": 346.09959257594346,
        "timestamp": "2025-12-04T05:42:42.156830+00:00",
        "meta_object_name": "STARLINK-35804",
        "meta_object_id": "2025-254Z",
        "meta_epoch": "2025-12-03T12:54:52.412832",
        "meta_mean_motion": 15.74270085,
        "meta_eccentricity": 0.000118,
        "meta_inclination": 53.1569,
        "meta_ra_of_asc_node": 320.5433,
        "meta_arg_of_pericenter": 114.541,
        "meta_mean_anomaly": 245.5733,
        "meta_ephemeris_type": 0,
        "meta_classification_type": "U",
        "meta_norad_cat_id": 66371,
        "meta_element_set_no": 999,
        "meta_rev_at_epoch": 423,
        "meta_bstar": 0.0013109622,
        "meta_mean_motion_dot": 0.00196597,
        "meta_mean_motion_ddot": 0,
        "tle_line1": "1 66371U 25254Z   25337.53810663  .00196597  00000+0  13110-2 0  9997",
        "tle_line2": "2 66371  53.1569 320.5433 0001180 114.5410 245.5733 15.74270085  4237"
      },
      "geometry": {
        "type": "Point",
        "coordinates": [
          -37.42082211229031,
          7.2992726373062995
        ]
      }
    }
  ]
}